{"type": "FeatureCollection", "features": [ {"type": "Feature", "properties": {"norad_id": 62677, "name": "ELEVATION-1", "group": "active", "lat": 57.900445444309355, "lon": -113.62558593698589, "alt_km": 470.60336862018266, "timestamp": "2025-12-01T03:58:49.278805+00:00", "meta": {"OBJECT_NAME": "ELEVATION-1", "OBJECT_ID": "2025-009BW", "EPOCH": "2025-11-30T05:29:15.328032", "MEAN_MOTION": 15.3068811, "ECCENTRICITY": 0.00037745, "INCLINATION": 97.4074, "RA_OF_ASC_NODE": 53.469, "ARG_OF_PERICENTER": 318.6213, "MEAN_ANOMALY": 41.4741, "EPHEMERIS_TYPE": 0, "CLASSIFICATION_TYPE": "U", "NORAD_CAT_ID": 62677, "ELEMENT_SET_NO": 999, "REV_AT_EPOCH": 10627, "BSTAR": 0.00081518642, "MEAN_MOTION_DOT": 0.00024159, "MEAN_MOTION_DDOT": 0, "GROUP": "active"}, "tle": {"line1": "1 62677U 25009BW  25334.22864963  .00024159  00000+0  81519-3 0  9998", "line2": "2 62677  97.4074  53.4690 0003774 318.6213  41.4741 15.30688110106273"}}, "geometry": {"type": "Point", "coordinates": [-113.62558593698589, 57.900445444309355]}}, {"type": "Feature", "properties": {"norad_id": 62678, "name": "FLOCK 4G-15", "group": "active", "lat": 28.285170377380187, "lon": 49.42702472179212, "alt_km": 490.5185902308467, "timestamp": "2025-12-01T03:58:49.278814+00:00", "meta": {"OBJECT_NAME": "FLOCK 4G-15", "OBJECT_ID": "2025-009BX", "EPOCH": "2025-11-30T12:06:14.493888", "MEAN_MOTION": 15.24628132, "ECCENTRICITY": 0.00041112, "INCLINATION": 97.4209, "RA_OF_ASC_NODE": 52.7936, "ARG_OF_PERICENTER": 304.2875, "MEAN_ANOMALY": 55.7973, "EPHEMERIS_TYPE": 0, "CLASSIFICATION_TYPE": "U", "NORAD_CAT_ID": 62678, "ELEMENT_SET_NO": 999, "REV_AT_EPOCH": 10622, "BSTAR": 0.00054579964, "MEAN_MOTION_DOT": 0.00013413, "MEAN_MOTION_DDOT": 0, "GROUP": "active"}, "tle": {"line1": "1 62678U 25009BX  25334.50433442  .00013413  00000+0  54580-3 0  9993", "line2": "2 62678  97.4209  52.7936 0004111 304.2875  55.7973 15.24628132106221"}}, "geometry": {"type": "Point", "coordinates": [49.42702472179212, 28.285170377380187]}}, {"type": "Feature", "properties": {"norad_id": 62679, "name": "FLOCK 4G-30", "group": "active", "lat": 42.029499136860856, "lon": -120.25682413327118, "alt_km": 491.89127389704936, "timestamp": "2025-12-01T03:58:49.278824+00:00", "meta": {"OBJECT_NAME": "FLOCK 4G-30", "OBJECT_ID": "2025-009BY", "EPOCH": "2025-11-30T05:19:25.622112", "MEAN_MOTION": 15.24390981, "ECCENTRICITY": 0.00040002, "INCLINATION": 97.4128, "RA_OF_ASC_NODE": 52.0702, "ARG_OF_PERICENTER": 333.0735, "MEAN_ANOMALY": 27.0295, "EPHEMERIS_TYPE": 0, "CLASSIFICATION_TYPE": "U", "NORAD_CAT_ID": 62679, "ELEMENT_SET_NO": 999, "REV_AT_EPOCH": 10617, "BSTAR": 0.00047016581, "MEAN_MOTION_DOT": 0.0001146, "MEAN_MOTION_DDOT": 0, "GROUP": "active"}, "tle": {"line1": "1 62679U 25009BY  25334.22182433  .00011460  00000+0  47017-3 0  9991", "line2": "2 62679  97.4128  52.0702 0004000 333.0735  27.0295 15.24390981106179"}}, "geometry": {"type": "Point", "coordinates": [-120.25682413327118, 42.029499136860856]}}, {"type": "Feature", "properties": {"norad_id": 62680, "name": "FLOCK 4G-18", "group": "active", "lat": 67.4727474869504, "lon": 34.98072298567126, "alt_km": 486.83642914208394, "timestamp": "2025-12-01T03:58:49.278833+00:00", "meta": {"OBJECT_NAME": "FLOCK 4G-18", "OBJECT_ID": "2025-009BZ", "EPOCH": "2025-11-30T04:03:01.554336", "MEAN_MOTION": 15.24459118, "ECCENTRICITY": 0.00044967, "INCLINATION": 97.4207, "RA_OF_ASC_NODE": 52.308, "ARG_OF_PERICENTER": 322.2548, "MEAN_ANOMALY": 37.8373, "EPHEMERIS_TYPE": 0, "CLASSIFICATION_TYPE": "U", "NORAD_CAT_ID": 62680, "ELEMENT_SET_NO": 999, "REV_AT_EPOCH": 10616, "BSTAR": 0.00058584722, "MEAN_MOTION_DOT": 0.00014332, "MEAN_MOTION_DDOT": 0, "GROUP": "active"}, "tle": {"line1": "1 62680U 25009BZ  25334.16876799  .00014332  00000+0  58585-3 0  9994", "line2": "2 62680  97.4207  52.3080 0004496 322.2548  37.8373 15.24459118106165"}}, "geometry": {"type": "Point", "coordinates": [34.98072298567126, 67.4727474869504]}}, {"type": "Feature", "properties": {"norad_id": 62681, "name": "FLOCK 4G-17", "group": "active", "lat": 38.101145914576335, "lon": -120.99491274258673, "alt_km": 491.62003484632805, "timestamp": "2025-12-01T03:58:49.278847+00:00", "meta": {"OBJECT_NAME": "FLOCK 4G-17", "OBJECT_ID": "2025-009CA", "EPOCH": "2025-11-30T11:36:40.900608", "MEAN_MOTION": 15.24714586, "ECCENTRICITY": 0.00040338, "INCLINATION": 97.4124, "RA_OF_ASC_NODE": 52.4709, "ARG_OF_PERICENTER": 327.7078, "MEAN_ANOMALY": 32.3912, "EPHEMERIS_TYPE": 0, "CLASSIFICATION_TYPE": "U", "NORAD_CAT_ID": 62681, "ELEMENT_SET_NO": 999, "REV_AT_EPOCH": 10622, "BSTAR": 0.00050860438, "MEAN_MOTION_DOT": 0.00012525, "MEAN_MOTION_DDOT": 0, "GROUP": "active"}, "tle": {"line1": "1 62681U 25009CA  25334.48380672  .00012525  00000+0  50860-3 0  9990", "line2": "2 62681  97.4124  52.4709 0004033 327.7078  32.3912 15.24714586106227"}}, "geometry": {"type": "Point", "coordinates": [-120.99491274258673, 38.101145914576335]}}, {"type": "Feature", "properties": {"norad_id": 62682, "name": "FOREST-3", "group": "active", "lat": -25.898672324999513, "lon": -131.17377197117267, "alt_km": 508.08420298235615, "timestamp": "2025-12-01T03:58:49.278857+00:00", "meta": {"OBJECT_NAME": "FOREST-3", "OBJECT_ID": "2025-009CB", "EPOCH": "2025-11-30T11:17:48.628608", "MEAN_MOTION": 15.21814641, "ECCENTRICITY": 0.0004571, "INCLINATION": 97.4102, "RA_OF_ASC_NODE": 51.7647, "ARG_OF_PERICENTER": 337.6586, "MEAN_ANOMALY": 22.445, "EPHEMERIS_TYPE": 0, "CLASSIFICATION_TYPE": "U", "NORAD_CAT_ID": 62682, "ELEMENT_SET_NO": 999, "REV_AT_EPOCH": 10618, "BSTAR": 0.00022363426, "MEAN_MOTION_DOT": 5.01e-05, "MEAN_MOTION_DDOT": 0, "GROUP": "active"}, "tle": {"line1": "1 62682U 25009CB  25334.47070172  .00005010  00000+0  22363-3 0  9999", "line2": "2 62682  97.4102  51.7647 0004571 337.6586  22.4450 15.21814641106180"}}, "geometry": {"type": "Point", "coordinates": [-131.17377197117267, -25.898672324999513]}}, {"type": "Feature", "properties": {"norad_id": 62684, "name": "IRIS-F2", "group": "active", "lat": 63.303074184231555, "lon": -112.61855172210512, "alt_km": 495.87431471455875, "timestamp": "2025-12-01T03:58:49.278867+00:00", "meta": {"OBJECT_NAME": "IRIS-F2", "OBJECT_ID": "2025-009CD", "EPOCH": "2025-11-30T11:41:50.130528", "MEAN_MOTION": 15.22193882, "ECCENTRICITY": 0.00053759, "INCLINATION": 97.4076, "RA_OF_ASC_NODE": 51.7192, "ARG_OF_PERICENTER": 338.6741, "MEAN_ANOMALY": 21.427, "EPHEMERIS_TYPE": 0, "CLASSIFICATION_TYPE": "U", "NORAD_CAT_ID": 62684, "ELEMENT_SET_NO": 999, "REV_AT_EPOCH": 10618, "BSTAR": 0.00015086213, "MEAN_MOTION_DOT": 3.395e-05, "MEAN_MOTION_DDOT": 0, "GROUP": "active"}, "tle": {"line1": "1 62684U 25009CD  25334.48738577  .00003395  00000+0  15086-3 0  9990", "line2": "2 62684  97.4076  51.7192 0005375 338.6741  21.4270 15.22193882106181"}}, "geometry": {"type": "Point", "coordinates": [-112.61855172210512, 63.303074184231555]}}, {"type": "Feature", "properties": {"norad_id": 62685, "name": "FLOCK 4G-33", "group": "active", "lat": 10.432491747372376, "lon": 51.179157800699855, "alt_km": 498.60540325931197, "timestamp": "2025-12-01T03:58:49.278880+00:00", "meta": {"OBJECT_NAME": "FLOCK 4G-33", "OBJECT_ID": "2025-009CE", "EPOCH": "2025-11-30T04:16:15.177216", "MEAN_MOTION": 15.22300367, "ECCENTRICITY": 0.00047198, "INCLINATION": 97.4144, "RA_OF_ASC_NODE": 51.5788, "ARG_OF_PERICENTER": 319.4172, "MEAN_ANOMALY": 40.6712, "EPHEMERIS_TYPE": 0, "CLASSIFICATION_TYPE": "U", "NORAD_CAT_ID": 62685, "ELEMENT_SET_NO": 999, "REV_AT_EPOCH": 4849, "BSTAR": 0.00040372738, "MEAN_MOTION_DOT": 9.237e-05, "MEAN_MOTION_DDOT": 0, "GROUP": "active"}, "tle": {"line1": "1 62685U 25009CE  25334.17795344  .00009237  00000+0  40373-3 0  9990", "line2": "2 62685  97.4144  51.5788 0004719 319.4172  40.6712 15.22300367 48494"}}, "geometry": {"type": "Point", "coordinates": [51.179157800699855, 10.432491747372376]}}, {"type": "Feature", "properties": {"norad_id": 62686, "name": "FOSSASAT-2E18 (TAT-A)", "group": "active", "lat": 17.512115787653784, "lon": 49.68855152801339, "alt_km": 505.62205024850664, "timestamp": "2025-12-01T03:58:49.278910+00:00", "meta": {"OBJECT_NAME": "FOSSASAT-2E18 (TAT-A)", "OBJECT_ID": "2025-009CF", "EPOCH": "2025-11-30T04:11:50.298144", "MEAN_MOTION": 15.19593952, "ECCENTRICITY": 0.0005172, "INCLINATION": 97.4168, "RA_OF_ASC_NODE": 51.0707, "ARG_OF_PERICENTER": 324.7843, "MEAN_ANOMALY": 35.305, "EPHEMERIS_TYPE": 0, "CLASSIFICATION_TYPE": "U", "NORAD_CAT_ID": 62686, "ELEMENT_SET_NO": 999, "REV_AT_EPOCH": 4845, "BSTAR": 0.00019450577, "MEAN_MOTION_DOT": 4.073e-05, "MEAN_MOTION_DDOT": 0, "GROUP": "active"}, "tle": {"line1": "1 62686U 25009CF  25334.17488771  .00004073  00000+0  19451-3 0  9990", "line2": "2 62686  97.4168  51.0707 0005172 324.7843  35.3050 15.19593952 48457"}}, "geometry": {"type": "Point", "coordinates": [49.68855152801339, 17.512115787653784]}}, {"type": "Feature", "properties": {"norad_id": 62687, "name": "HYPE", "group": "active", "lat": -77.667912663022, "lon": 97.62890241920792, "alt_km": 313.2454219453093, "timestamp": "2025-12-01T03:58:49.278921+00:00", "meta": {"OBJECT_NAME": "HYPE", "OBJECT_ID": "2025-009CG", "EPOCH": "2025-11-30T04:05:18.564000", "MEAN_MOTION": 15.85043124, "ECCENTRICITY": 0.00073009, "INCLINATION": 97.4142, "RA_OF_ASC_NODE": 59.9888, "ARG_OF_PERICENTER": 285.7512, "MEAN_ANOMALY": 74.2953, "EPHEMERIS_TYPE": 0, "CLASSIFICATION_TYPE": "U", "NORAD_CAT_ID": 62687, "ELEMENT_SET_NO": 999, "REV_AT_EPOCH": 4899, "BSTAR": 0.0037835429, "MEAN_MOTION_DOT": 0.00988018, "MEAN_MOTION_DDOT": 0, "GROUP": "active"}, "tle": {"line1": "1 62687U 25009CG  25334.17035375  .00988018  00000+0  37835-2 0  9994", "line2": "2 62687  97.4142  59.9888 0007300 285.7512  74.2953 15.85043124 48998"}}, "geometry": {"type": "Point", "coordinates": [97.62890241920792, -77.667912663022]}}]}